STARLINK-31908          
1 59901U 24100S   26068.52828074  .00000679  00000+0  34208-4 0  9991
2 59901  43.0036 119.2585 0001348 225.6709 134.4033 15.27569115101204
KUIPER-00209            
1 67776U 26030N   26068.61786546  .00035298  00000+0  11963-2 0  9997
2 67776  51.8838 220.0775 0012191  59.1967 301.0215 15.30161950  5077
